{
    "links": {
        "self": "http://www.neowsapp.com/rest/v1/neo/3733296?api_key=iIulBulltgU6a56xZRHN4H3l9WmuAYTsLGpBGhQ2"
    },
    "id": "3733296",
    "neo_reference_id": "3733296",
    "name": "(2015 VU2)",
    "designation": "2015 VU2",
    "nasa_jpl_url": "http://ssd.jpl.nasa.gov/sbdb.cgi?sstr=3733296",
    "absolute_magnitude_h": 22.6,
    "estimated_diameter": {
        "kilometers": {
            "estimated_diameter_min": 0.0802703167,
            "estimated_diameter_max": 0.1794898848
        },
        "meters": {
            "estimated_diameter_min": 80.2703167283,
            "estimated_diameter_max": 179.4898847799
        },
        "miles": {
            "estimated_diameter_min": 0.049877647,
            "estimated_diameter_max": 0.1115298092
        },
        "feet": {
            "estimated_diameter_min": 263.3540659348,
            "estimated_diameter_max": 588.8775935812
        }
    },
    "is_potentially_hazardous_asteroid": false,
    "close_approach_data": [
        {
            "close_approach_date": "1993-07-10",
            "close_approach_date_full": "1993-Jul-10 21:22",
            "epoch_date_close_approach": 742339320000,
            "relative_velocity": {
                "kilometers_per_second": "20.0083193138",
                "kilometers_per_hour": "72029.9495295234",
                "miles_per_hour": "44756.6094729419"
            },
            "miss_distance": {
                "astronomical": "0.4960122545",
                "lunar": "192.9487670005",
                "kilometers": "74202376.767097915",
                "miles": "46107218.902924627"
            },
            "orbiting_body": "Earth"
        },
        {
            "close_approach_date": "1996-10-20",
            "close_approach_date_full": "1996-Oct-20 07:53",
            "epoch_date_close_approach": 845797980000,
            "relative_velocity": {
                "kilometers_per_second": "17.9804368965",
                "kilometers_per_hour": "64729.5728272492",
                "miles_per_hour": "40220.4392936871"
            },
            "miss_distance": {
                "astronomical": "0.4349997758",
                "lunar": "169.2149127862",
                "kilometers": "65075039.910157546",
                "miles": "40435754.7693082948"
            },
            "orbiting_body": "Earth"
        },
        {
            "close_approach_date": "2015-08-30",
            "close_approach_date_full": "2015-Aug-30 22:48",
            "epoch_date_close_approach": 1440974880000,
            "relative_velocity": {
                "kilometers_per_second": "5.8419826655",
                "kilometers_per_hour": "21031.1375958977",
                "miles_per_hour": "13067.9310245177"
            },
            "miss_distance": {
                "astronomical": "0.1307458155",
                "lunar": "50.8601222295",
                "kilometers": "19559295.510212985",
                "miles": "12153582.660929793"
            },
            "orbiting_body": "Earth"
        },
        {
            "close_approach_date": "2034-07-16",
            "close_approach_date_full": "2034-Jul-16 05:24",
            "epoch_date_close_approach": 2036640240000,
            "relative_velocity": {
                "kilometers_per_second": "17.6745255305",
                "kilometers_per_hour": "63628.2919098832",
                "miles_per_hour": "39536.1461592271"
            },
            "miss_distance": {
                "astronomical": "0.4205079688",
                "lunar": "163.5775998632",
                "kilometers": "62907096.450506456",
                "miles": "39088657.1692268528"
            },
            "orbiting_body": "Earth"
        }
    ],
    "orbital_data": {
        "orbit_id": "6",
        "orbit_determination_date": "2017-04-06 08:30:56",
        "first_observation_date": "2015-10-24",
        "last_observation_date": "2015-12-02",
        "data_arc_in_days": 39,
        "observations_used": 18,
        "orbit_uncertainty": "6",
        "minimum_orbit_intersection": ".132674",
        "jupiter_tisserand_invariant": "3.524",
        "epoch_osculation": "2459000.5",
        "eccentricity": ".5017120126424037",
        "semi_major_axis": "2.151522228894102",
        "inclination": "6.451028753220283",
        "ascending_node_longitude": "75.55089588747758",
        "orbital_period": "1152.702361904067",
        "perihelion_distance": "1.072077681190772",
        "perihelion_argument": "267.0579331015914",
        "aphelion_distance": "3.230966776597433",
        "perihelion_time": "2459576.121660223065",
        "mean_anomaly": "180.2278363184705",
        "mean_motion": ".3123095882317286",
        "equinox": "J2000",
        "orbit_class": {
            "orbit_class_type": "AMO",
            "orbit_class_description": "Near-Earth asteroid orbits similar to that of 1221 Amor",
            "orbit_class_range": "1.017 AU < q (perihelion) < 1.3 AU"
        }
    },
    "is_sentry_object": false
}